{"type": "FeatureCollection", "features": [ {"type": "Feature", "properties": {"norad_id": 45807, "name": "BEIDOU-3 G3 (C61)", "group": "gnss", "lat": 1.827711901367988, "lon": 130.28107365155105, "alt_km": 35798.58679461797, "timestamp": "2025-12-25T19:00:39.594952+00:00", "meta": {"OBJECT_NAME": "BEIDOU-3 G3 (C61)", "OBJECT_ID": "2020-040A", "EPOCH": "2025-12-25T06:44:37.184352", "MEAN_MOTION": 1.00267527, "ECCENTRICITY": 0.00065935, "INCLINATION": 2.0195, "RA_OF_ASC_NODE": 66.6879, "ARG_OF_PERICENTER": 309.0076, "MEAN_ANOMALY": 290.0312, "EPHEMERIS_TYPE": 0, "CLASSIFICATION_TYPE": "U", "NORAD_CAT_ID": 45807, "ELEMENT_SET_NO": 999, "REV_AT_EPOCH": 2032, "BSTAR": 0, "MEAN_MOTION_DOT": -3.33e-06, "MEAN_MOTION_DDOT": 0}, "tle": {"line1": "1 45807U 20040A   25359.28098593 -.00000333  00000+0  00000+0 0  9996", "line2": "2 45807   2.0195  66.6879 0006593 309.0076 290.0312  1.00267527 20327"}}, "geometry": {"type": "Point", "coordinates": [130.28107365155105, 1.827711901367988]}}, {"type": "Feature", "properties": {"norad_id": 45854, "name": "GPS BIII-3  (PRN 23)", "group": "gnss", "lat": 38.643894507641036, "lon": 67.57716601506614, "alt_km": 20324.057348004702, "timestamp": "2025-12-25T19:00:39.594963+00:00", "meta": {"OBJECT_NAME": "GPS BIII-3  (PRN 23)", "OBJECT_ID": "2020-041A", "EPOCH": "2025-12-24T07:36:15.586848", "MEAN_MOTION": 2.00561688, "ECCENTRICITY": 0.00606528, "INCLINATION": 56.5546, "RA_OF_ASC_NODE": 35.7353, "ARG_OF_PERICENTER": 203.7393, "MEAN_ANOMALY": 219.8521, "EPHEMERIS_TYPE": 0, "CLASSIFICATION_TYPE": "U", "NORAD_CAT_ID": 45854, "ELEMENT_SET_NO": 999, "REV_AT_EPOCH": 4053, "BSTAR": 0, "MEAN_MOTION_DOT": -4.9e-07, "MEAN_MOTION_DDOT": 0}, "tle": {"line1": "1 45854U 20041A   25358.31684707 -.00000049  00000+0  00000+0 0  9994", "line2": "2 45854  56.5546  35.7353 0060652 203.7393 219.8521  2.00561688 40537"}}, "geometry": {"type": "Point", "coordinates": [67.57716601506614, 38.643894507641036]}}, {"type": "Feature", "properties": {"norad_id": 46114, "name": "GALAXY 30 (WAAS/PRN 135)", "group": "gnss", "lat": -0.03396894856644169, "lon": -105.30679647941326, "alt_km": 35777.54575225006, "timestamp": "2025-12-25T19:00:39.594976+00:00", "meta": {"OBJECT_NAME": "GALAXY 30 (WAAS/PRN 135)", "OBJECT_ID": "2020-056C", "EPOCH": "2025-12-25T06:10:38.820000", "MEAN_MOTION": 1.00271167, "ECCENTRICITY": 0.00021608, "INCLINATION": 0.0179, "RA_OF_ASC_NODE": 337.5906, "ARG_OF_PERICENTER": 295.4491, "MEAN_ANOMALY": 148.6389, "EPHEMERIS_TYPE": 0, "CLASSIFICATION_TYPE": "U", "NORAD_CAT_ID": 46114, "ELEMENT_SET_NO": 999, "REV_AT_EPOCH": 1954, "BSTAR": 0, "MEAN_MOTION_DOT": 5.8e-07, "MEAN_MOTION_DDOT": 0}, "tle": {"line1": "1 46114U 20056C   25359.25739375  .00000058  00000+0  00000+0 0  9995", "line2": "2 46114   0.0179 337.5906 0002160 295.4491 148.6389  1.00271167 19544"}}, "geometry": {"type": "Point", "coordinates": [-105.30679647941326, -0.03396894856644169]}}, {"type": "Feature", "properties": {"norad_id": 46805, "name": "COSMOS 2547 (705K)", "group": "gnss", "lat": 3.905036851231221, "lon": -159.875890227921, "alt_km": 19141.430477082, "timestamp": "2025-12-25T19:00:39.594988+00:00", "meta": {"OBJECT_NAME": "COSMOS 2547 (705K)", "OBJECT_ID": "2020-075A", "EPOCH": "2025-12-24T20:21:03.584160", "MEAN_MOTION": 2.13100193, "ECCENTRICITY": 0.00061113, "INCLINATION": 64.5968, "RA_OF_ASC_NODE": 198.292, "ARG_OF_PERICENTER": 227.5617, "MEAN_ANOMALY": 132.4433, "EPHEMERIS_TYPE": 0, "CLASSIFICATION_TYPE": "U", "NORAD_CAT_ID": 46805, "ELEMENT_SET_NO": 999, "REV_AT_EPOCH": 4019, "BSTAR": 0, "MEAN_MOTION_DOT": 1.02e-06, "MEAN_MOTION_DDOT": 0}, "tle": {"line1": "1 46805U 20075A   25358.84795815  .00000102  00000+0  00000+0 0  9998", "line2": "2 46805  64.5968 198.2920 0006111 227.5617 132.4433  2.13100193 40197"}}, "geometry": {"type": "Point", "coordinates": [-159.875890227921, 3.905036851231221]}}, {"type": "Feature", "properties": {"norad_id": 46826, "name": "GPS BIII-4  (PRN 14)", "group": "gnss", "lat": 16.152777379712656, "lon": -130.02823208696987, "alt_km": 20352.051225825508, "timestamp": "2025-12-25T19:00:39.594999+00:00", "meta": {"OBJECT_NAME": "GPS BIII-4  (PRN 14)", "OBJECT_ID": "2020-078A", "EPOCH": "2025-12-16T01:06:13.902336", "MEAN_MOTION": 2.00566891, "ECCENTRICITY": 0.0064754, "INCLINATION": 54.0144, "RA_OF_ASC_NODE": 218.2068, "ARG_OF_PERICENTER": 203.3802, "MEAN_ANOMALY": 339.3962, "EPHEMERIS_TYPE": 0, "CLASSIFICATION_TYPE": "U", "NORAD_CAT_ID": 46826, "ELEMENT_SET_NO": 999, "REV_AT_EPOCH": 3783, "BSTAR": 0, "MEAN_MOTION_DOT": 6.7e-07, "MEAN_MOTION_DDOT": 0}, "tle": {"line1": "1 46826U 20078A   25350.04599424  .00000067  00000+0  00000+0 0  9996", "line2": "2 46826  54.0144 218.2068 0064754 203.3802 339.3962  2.00566891 37830"}}, "geometry": {"type": "Point", "coordinates": [-130.02823208696987, 16.152777379712656]}}, {"type": "Feature", "properties": {"norad_id": 48859, "name": "GPS BIII-5  (PRN 11)", "group": "gnss", "lat": -20.056966979499535, "lon": 174.09291666202935, "alt_km": 20128.650798039773, "timestamp": "2025-12-25T19:00:39.595010+00:00", "meta": {"OBJECT_NAME": "GPS BIII-5  (PRN 11)", "OBJECT_ID": "2021-054A", "EPOCH": "2025-12-08T04:14:32.423424", "MEAN_MOTION": 2.00553627, "ECCENTRICITY": 0.0024678, "INCLINATION": 55.2581, "RA_OF_ASC_NODE": 340.1367, "ARG_OF_PERICENTER": 233.3993, "MEAN_ANOMALY": 212.8594, "EPHEMERIS_TYPE": 0, "CLASSIFICATION_TYPE": "U", "NORAD_CAT_ID": 48859, "ELEMENT_SET_NO": 999, "REV_AT_EPOCH": 3292, "BSTAR": 0, "MEAN_MOTION_DOT": -8.6e-07, "MEAN_MOTION_DDOT": 0}, "tle": {"line1": "1 48859U 21054A   25342.17676416 -.00000086  00000+0  00000+0 0  9993", "line2": "2 48859  55.2581 340.1367 0024678 233.3993 212.8594  2.00553627 32922"}}, "geometry": {"type": "Point", "coordinates": [174.09291666202935, -20.056966979499535]}}, {"type": "Feature", "properties": {"norad_id": 49336, "name": "QZS-1R (QZSS/PRN 196)", "group": "gnss", "lat": 35.50838898735218, "lon": 152.61393899373786, "alt_km": 38805.87854046841, "timestamp": "2025-12-25T19:00:39.595023+00:00", "meta": {"OBJECT_NAME": "QZS-1R (QZSS/PRN 196)", "OBJECT_ID": "2021-096A", "EPOCH": "2025-12-24T14:02:51.747360", "MEAN_MOTION": 1.00253394, "ECCENTRICITY": 0.0757125, "INCLINATION": 37.101, "RA_OF_ASC_NODE": 82.185, "ARG_OF_PERICENTER": 271.5387, "MEAN_ANOMALY": 84.3648, "EPHEMERIS_TYPE": 0, "CLASSIFICATION_TYPE": "U", "NORAD_CAT_ID": 49336, "ELEMENT_SET_NO": 999, "REV_AT_EPOCH": 1526, "BSTAR": 0, "MEAN_MOTION_DOT": -2.38e-06, "MEAN_MOTION_DDOT": 0}, "tle": {"line1": "1 49336U 21096A   25358.58532115 -.00000238  00000+0  00000+0 0  9998", "line2": "2 49336  37.1010  82.1850 0757125 271.5387  84.3648  1.00253394 15267"}}, "geometry": {"type": "Point", "coordinates": [152.61393899373786, 35.50838898735218]}}, {"type": "Feature", "properties": {"norad_id": 49809, "name": "GSAT0223 (GALILEO 27)", "group": "gnss", "lat": -56.65153578835716, "lon": -115.36042318353303, "alt_km": 23215.058612328765, "timestamp": "2025-12-25T19:00:39.595035+00:00", "meta": {"OBJECT_NAME": "GSAT0223 (GALILEO 27)", "OBJECT_ID": "2021-116A", "EPOCH": "2025-12-22T17:26:14.878176", "MEAN_MOTION": 1.70475871, "ECCENTRICITY": 0.000441, "INCLINATION": 57.2174, "RA_OF_ASC_NODE": 346.4438, "ARG_OF_PERICENTER": 255.815, "MEAN_ANOMALY": 286.3499, "EPHEMERIS_TYPE": 0, "CLASSIFICATION_TYPE": "U", "NORAD_CAT_ID": 49809, "ELEMENT_SET_NO": 999, "REV_AT_EPOCH": 2517, "BSTAR": 0, "MEAN_MOTION_DOT": -6.4e-07, "MEAN_MOTION_DDOT": 0}, "tle": {"line1": "1 49809U 21116A   25356.72656109 -.00000064  00000+0  00000+0 0  9997", "line2": "2 49809  57.2174 346.4438 0004410 255.8150 286.3499  1.70475871 25171"}}, "geometry": {"type": "Point", "coordinates": [-115.36042318353303, -56.65153578835716]}}, {"type": "Feature", "properties": {"norad_id": 49810, "name": "GSAT0224 (GALILEO 28)", "group": "gnss", "lat": 13.559215921843972, "lon": -4.711119792169504, "alt_km": 23225.226449848575, "timestamp": "2025-12-25T19:00:39.595046+00:00", "meta": {"OBJECT_NAME": "GSAT0224 (GALILEO 28)", "OBJECT_ID": "2021-116B", "EPOCH": "2025-12-23T03:00:59.528736", "MEAN_MOTION": 1.70475912, "ECCENTRICITY": 0.00037519, "INCLINATION": 57.2181, "RA_OF_ASC_NODE": 346.4317, "ARG_OF_PERICENTER": 260.8078, "MEAN_ANOMALY": 278.9053, "EPHEMERIS_TYPE": 0, "CLASSIFICATION_TYPE": "U", "NORAD_CAT_ID": 49810, "ELEMENT_SET_NO": 999, "REV_AT_EPOCH": 2520, "BSTAR": 0, "MEAN_MOTION_DOT": -6.3e-07, "MEAN_MOTION_DDOT": 0}, "tle": {"line1": "1 49810U 21116B   25357.12568899 -.00000063  00000+0  00000+0 0  9991", "line2": "2 49810  57.2181 346.4317 0003751 260.8078 278.9053  1.70475912 25202"}}, "geometry": {"type": "Point", "coordinates": [-4.711119792169504, 13.559215921843972]}}, {"type": "Feature", "properties": {"norad_id": 52984, "name": "COSMOS 2557 (706K)", "group": "gnss", "lat": -49.41971675355091, "lon": 174.58540881105853, "alt_km": 19109.580649860585, "timestamp": "2025-12-25T19:00:39.595057+00:00", "meta": {"OBJECT_NAME": "COSMOS 2557 (706K)", "OBJECT_ID": "2022-075A", "EPOCH": "2025-12-25T00:18:58.965408", "MEAN_MOTION": 2.13102032, "ECCENTRICITY": 0.0013542, "INCLINATION": 64.4029, "RA_OF_ASC_NODE": 320.6204, "ARG_OF_PERICENTER": 278.4841, "MEAN_ANOMALY": 81.3651, "EPHEMERIS_TYPE": 0, "CLASSIFICATION_TYPE": "U", "NORAD_CAT_ID": 52984, "ELEMENT_SET_NO": 999, "REV_AT_EPOCH": 2700, "BSTAR": 0, "MEAN_MOTION_DOT": -3.4e-07, "MEAN_MOTION_DDOT": 0}, "tle": {"line1": "1 52984U 22075A   25359.01318247 -.00000034  00000+0  00000+0 0  9990", "line2": "2 52984  64.4029 320.6204 0013542 278.4841  81.3651  2.13102032 27008"}}, "geometry": {"type": "Point", "coordinates": [174.58540881105853, -49.41971675355091]}}]}